FLOCK 4BE-14            
1 60517U 24149BB  26087.77677117  .00024121  00000+0  63781-3 0  9992
2 60517  97.3723 170.9938 0004525 204.3852 155.7180 15.38396901 89952
FLOCK 4BE-1             
1 60518U 24149BC  26087.22169284  .00026214  00000+0  66265-3 0  9999
2 60518  97.3796 171.4373 0004248 205.4108 154.6929 15.39764342 89903
FLOCK 4BE-28            
1 60519U 24149BD  26087.74225440  .00025183  00000+0  59345-3 0  9999
2 60519  97.3768 172.4482 0004455 203.6442 156.4600 15.41900495 90032
IPERDRONE.0             
1 60520U 24149BE  26087.81840036  .00059646  00000+0  82898-3 0  9993
2 60520  97.3791 177.7031 0003974 174.2509 185.8792 15.56802198 90372
TRANSPORTER-11 OBJECT BF
1 60521U 24149BF  26087.80450114  .00104314  00000+0  11308-2 0  9997
2 60521  97.3805 179.0767 0004202 181.0735 179.0515 15.63187865 90454
CONNECTA IOT-2          
1 60522U 24149BG  26087.79342313  .00005599  00000+0  23941-3 0  9999
2 60522  97.3868 167.1925 0005164 238.5743 121.4989 15.23229163 89653
PTD-R (TYVAK-0127)      
1 60523U 24149BH  26087.77437904  .00181791  00000+0  11606-2 0  9992
2 60523  97.3736 182.1393 0004690 214.2777 145.8186 15.75832408 90677
CONNECTA IOT-4          
1 60524U 24149BJ  26087.80060850  .00021188  00000+0  54638-3 0  9995
2 60524  97.3818 171.3974 0005409 207.0449 153.0516 15.39190939 89952
ORESAT0.5               
1 60525U 24149BK  26087.73203435  .00023622  00000+0  55559-3 0  9994
2 60525  97.3739 172.6870 0005698 195.3771 164.7304 15.41965826 90067
DEIMOS                  
1 60526U 24149BL  26087.78832525  .00022893  00000+0  55137-3 0  9999
2 60526  97.3794 172.9160 0005513 201.6419 158.4595 15.41256303 90054
CUAVA-2                 
1 60527U 24149BM  26087.77944812  .00016054  00000+0  48727-3 0  9991
2 60527  97.3751 169.2732 0006482 208.8012 151.2874 15.34155509 89839
ERNST                   
1 60528U 24149BN  26087.76007935  .00017578  00000+0  48756-3 0  9991
2 60528  97.3828 171.0071 0005639 210.6301 149.4615 15.36974959 89918
TORO                    
1 60530U 24149BQ  26087.78997932  .00001948  00000+0  17830-3 0  9994
2 60530  97.6823 163.9642 0001067  98.9684 261.1658 14.96106664 87939
HYPSO-2                 
1 60531U 24149BR  26087.74189563  .00003089  00000+0  26407-3 0  9992
2 60531  97.6844 165.1870 0000994 160.0134 200.1128 14.98366079 88003
LEMU NGE                
1 60532U 24149BS  26087.72223696  .00002136  00000+0  20259-3 0  9998
2 60532  97.6878 164.3165 0000392  70.5959 289.5304 14.94599063 87936
LEMUR-2-STELLA          
1 60533U 24149BT  26087.74869927  .00014987  00000+0  92589-3 0  9996
2 60533  97.6752 169.9626 0001154 104.1299 256.0058 15.09970059 88356
SATELIOT_2              
1 60534U 24149BU  26087.70688088  .00002179  00000+0  19913-3 0  9990
2 60534  97.6872 164.1370 0001713  78.4669 281.6745 14.96051771 87934
