[{"OBJECT_NAME":"FLOCK 4BE-14","OBJECT_ID":"2024-149BB","EPOCH":"2026-03-28T18:38:33.029088","MEAN_MOTION":15.38396901,"ECCENTRICITY":0.0004525,"INCLINATION":97.3723,"RA_OF_ASC_NODE":170.9938,"ARG_OF_PERICENTER":204.3852,"MEAN_ANOMALY":155.718,"EPHEMERIS_TYPE":0,"CLASSIFICATION_TYPE":"U","NORAD_CAT_ID":60517,"ELEMENT_SET_NO":999,"REV_AT_EPOCH":8995,"BSTAR":0.00063781,"MEAN_MOTION_DOT":0.00024121,"MEAN_MOTION_DDOT":0},{"OBJECT_NAME":"FLOCK 4BE-1","OBJECT_ID":"2024-149BC","EPOCH":"2026-03-28T05:19:14.261376","MEAN_MOTION":15.39764342,"ECCENTRICITY":0.00042482,"INCLINATION":97.3796,"RA_OF_ASC_NODE":171.4373,"ARG_OF_PERICENTER":205.4108,"MEAN_ANOMALY":154.6929,"EPHEMERIS_TYPE":0,"CLASSIFICATION_TYPE":"U","NORAD_CAT_ID":60518,"ELEMENT_SET_NO":999,"REV_AT_EPOCH":8990,"BSTAR":0.00066264513,"MEAN_MOTION_DOT":0.00026214,"MEAN_MOTION_DDOT":0},{"OBJECT_NAME":"FLOCK 4BE-28","OBJECT_ID":"2024-149BD","EPOCH":"2026-03-28T17:48:50.780160","MEAN_MOTION":15.41900495,"ECCENTRICITY":0.0004455,"INCLINATION":97.3768,"RA_OF_ASC_NODE":172.4482,"ARG_OF_PERICENTER":203.6442,"MEAN_ANOMALY":156.46,"EPHEMERIS_TYPE":0,"CLASSIFICATION_TYPE":"U","NORAD_CAT_ID":60519,"ELEMENT_SET_NO":999,"REV_AT_EPOCH":9003,"BSTAR":0.00059345,"MEAN_MOTION_DOT":0.00025183,"MEAN_MOTION_DDOT":0},{"OBJECT_NAME":"IPERDRONE.0","OBJECT_ID":"2024-149BE","EPOCH":"2026-03-28T19:38:29.791104","MEAN_MOTION":15.56802198,"ECCENTRICITY":0.0003974,"INCLINATION":97.3791,"RA_OF_ASC_NODE":177.7031,"ARG_OF_PERICENTER":174.2509,"MEAN_ANOMALY":185.8792,"EPHEMERIS_TYPE":0,"CLASSIFICATION_TYPE":"U","NORAD_CAT_ID":60520,"ELEMENT_SET_NO":999,"REV_AT_EPOCH":9037,"BSTAR":0.00082898,"MEAN_MOTION_DOT":0.00059646,"MEAN_MOTION_DDOT":0},{"OBJECT_NAME":"TRANSPORTER-11 OBJECT BF","OBJECT_ID":"2024-149BF","EPOCH":"2026-03-28T19:18:28.898496","MEAN_MOTION":15.63187865,"ECCENTRICITY":0.0004202,"INCLINATION":97.3805,"RA_OF_ASC_NODE":179.0767,"ARG_OF_PERICENTER":181.0735,"MEAN_ANOMALY":179.0515,"EPHEMERIS_TYPE":0,"CLASSIFICATION_TYPE":"U","NORAD_CAT_ID":60521,"ELEMENT_SET_NO":999,"REV_AT_EPOCH":9045,"BSTAR":0.0011308,"MEAN_MOTION_DOT":0.00104314,"MEAN_MOTION_DDOT":0},{"OBJECT_NAME":"CONNECTA IOT-2","OBJECT_ID":"2024-149BG","EPOCH":"2026-03-28T19:02:31.758432","MEAN_MOTION":15.23229163,"ECCENTRICITY":0.0005164,"INCLINATION":97.3868,"RA_OF_ASC_NODE":167.1925,"ARG_OF_PERICENTER":238.5743,"MEAN_ANOMALY":121.4989,"EPHEMERIS_TYPE":0,"CLASSIFICATION_TYPE":"U","NORAD_CAT_ID":60522,"ELEMENT_SET_NO":999,"REV_AT_EPOCH":8965,"BSTAR":0.00023941,"MEAN_MOTION_DOT":5.599e-5,"MEAN_MOTION_DDOT":0},{"OBJECT_NAME":"PTD-R (TYVAK-0127)","OBJECT_ID":"2024-149BH","EPOCH":"2026-03-28T18:35:06.349056","MEAN_MOTION":15.75832408,"ECCENTRICITY":0.000469,"INCLINATION":97.3736,"RA_OF_ASC_NODE":182.1393,"ARG_OF_PERICENTER":214.2777,"MEAN_ANOMALY":145.8186,"EPHEMERIS_TYPE":0,"CLASSIFICATION_TYPE":"U","NORAD_CAT_ID":60523,"ELEMENT_SET_NO":999,"REV_AT_EPOCH":9067,"BSTAR":0.0011606,"MEAN_MOTION_DOT":0.00181791,"MEAN_MOTION_DDOT":0},{"OBJECT_NAME":"CONNECTA IOT-4","OBJECT_ID":"2024-149BJ","EPOCH":"2026-03-28T19:12:52.574400","MEAN_MOTION":15.39190939,"ECCENTRICITY":0.0005409,"INCLINATION":97.3818,"RA_OF_ASC_NODE":171.3974,"ARG_OF_PERICENTER":207.0449,"MEAN_ANOMALY":153.0516,"EPHEMERIS_TYPE":0,"CLASSIFICATION_TYPE":"U","NORAD_CAT_ID":60524,"ELEMENT_SET_NO":999,"REV_AT_EPOCH":8995,"BSTAR":0.00054638,"MEAN_MOTION_DOT":0.00021188,"MEAN_MOTION_DDOT":0},{"OBJECT_NAME":"ORESAT0.5","OBJECT_ID":"2024-149BK","EPOCH":"2026-03-28T17:34:07.767840","MEAN_MOTION":15.41965826,"ECCENTRICITY":0.0005698,"INCLINATION":97.3739,"RA_OF_ASC_NODE":172.687,"ARG_OF_PERICENTER":195.3771,"MEAN_ANOMALY":164.7304,"EPHEMERIS_TYPE":0,"CLASSIFICATION_TYPE":"U","NORAD_CAT_ID":60525,"ELEMENT_SET_NO":999,"REV_AT_EPOCH":9006,"BSTAR":0.00055559,"MEAN_MOTION_DOT":0.00023622,"MEAN_MOTION_DDOT":0},{"OBJECT_NAME":"DEIMOS","OBJECT_ID":"2024-149BL","EPOCH":"2026-03-28T18:55:11.301600","MEAN_MOTION":15.41256303,"ECCENTRICITY":0.0005513,"INCLINATION":97.3794,"RA_OF_ASC_NODE":172.916,"ARG_OF_PERICENTER":201.6419,"MEAN_ANOMALY":158.4595,"EPHEMERIS_TYPE":0,"CLASSIFICATION_TYPE":"U","NORAD_CAT_ID":60526,"ELEMENT_SET_NO":999,"REV_AT_EPOCH":9005,"BSTAR":0.00055137,"MEAN_MOTION_DOT":0.00022893,"MEAN_MOTION_DDOT":0},{"OBJECT_NAME":"CUAVA-2","OBJECT_ID":"2024-149BM","EPOCH":"2026-03-28T18:42:24.317568","MEAN_MOTION":15.34155509,"ECCENTRICITY":0.0006482,"INCLINATION":97.3751,"RA_OF_ASC_NODE":169.2732,"ARG_OF_PERICENTER":208.8012,"MEAN_ANOMALY":151.2874,"EPHEMERIS_TYPE":0,"CLASSIFICATION_TYPE":"U","NORAD_CAT_ID":60527,"ELEMENT_SET_NO":999,"REV_AT_EPOCH":8983,"BSTAR":0.00048727,"MEAN_MOTION_DOT":0.00016054,"MEAN_MOTION_DDOT":0},{"OBJECT_NAME":"ERNST","OBJECT_ID":"2024-149BN","EPOCH":"2026-03-28T18:14:30.855840","MEAN_MOTION":15.36974959,"ECCENTRICITY":0.0005639,"INCLINATION":97.3828,"RA_OF_ASC_NODE":171.0071,"ARG_OF_PERICENTER":210.6301,"MEAN_ANOMALY":149.4615,"EPHEMERIS_TYPE":0,"CLASSIFICATION_TYPE":"U","NORAD_CAT_ID":60528,"ELEMENT_SET_NO":999,"REV_AT_EPOCH":8991,"BSTAR":0.00048756,"MEAN_MOTION_DOT":0.00017578,"MEAN_MOTION_DDOT":0},{"OBJECT_NAME":"TORO","OBJECT_ID":"2024-149BQ","EPOCH":"2026-03-28T18:57:34.213248","MEAN_MOTION":14.96106664,"ECCENTRICITY":0.0001067,"INCLINATION":97.6823,"RA_OF_ASC_NODE":163.9642,"ARG_OF_PERICENTER":98.9684,"MEAN_ANOMALY":261.1658,"EPHEMERIS_TYPE":0,"CLASSIFICATION_TYPE":"U","NORAD_CAT_ID":60530,"ELEMENT_SET_NO":999,"REV_AT_EPOCH":8793,"BSTAR":0.0001783,"MEAN_MOTION_DOT":1.948e-5,"MEAN_MOTION_DDOT":0},{"OBJECT_NAME":"HYPSO-2","OBJECT_ID":"2024-149BR","EPOCH":"2026-03-28T17:48:19.782432","MEAN_MOTION":14.98366079,"ECCENTRICITY":9.94e-5,"INCLINATION":97.6844,"RA_OF_ASC_NODE":165.187,"ARG_OF_PERICENTER":160.0134,"MEAN_ANOMALY":200.1128,"EPHEMERIS_TYPE":0,"CLASSIFICATION_TYPE":"U","NORAD_CAT_ID":60531,"ELEMENT_SET_NO":999,"REV_AT_EPOCH":8800,"BSTAR":0.00026407,"MEAN_MOTION_DOT":3.089e-5,"MEAN_MOTION_DDOT":0},{"OBJECT_NAME":"LEMU NGE","OBJECT_ID":"2024-149BS","EPOCH":"2026-03-28T17:20:01.273344","MEAN_MOTION":14.94599063,"ECCENTRICITY":3.92e-5,"INCLINATION":97.6878,"RA_OF_ASC_NODE":164.3165,"ARG_OF_PERICENTER":70.5959,"MEAN_ANOMALY":289.5304,"EPHEMERIS_TYPE":0,"CLASSIFICATION_TYPE":"U","NORAD_CAT_ID":60532,"ELEMENT_SET_NO":999,"REV_AT_EPOCH":8793,"BSTAR":0.00020259,"MEAN_MOTION_DOT":2.136e-5,"MEAN_MOTION_DDOT":0},{"OBJECT_NAME":"LEMUR-2-STELLA","OBJECT_ID":"2024-149BT","EPOCH":"2026-03-28T17:58:07.616928","MEAN_MOTION":15.09970059,"ECCENTRICITY":0.0001154,"INCLINATION":97.6752,"RA_OF_ASC_NODE":169.9626,"ARG_OF_PERICENTER":104.1299,"MEAN_ANOMALY":256.0058,"EPHEMERIS_TYPE":0,"CLASSIFICATION_TYPE":"U","NORAD_CAT_ID":60533,"ELEMENT_SET_NO":999,"REV_AT_EPOCH":8835,"BSTAR":0.00092589,"MEAN_MOTION_DOT":0.00014987,"MEAN_MOTION_DDOT":0},{"OBJECT_NAME":"SATELIOT_2","OBJECT_ID":"2024-149BU","EPOCH":"2026-03-28T16:57:54.508032","MEAN_MOTION":14.96051771,"ECCENTRICITY":0.0001713,"INCLINATION":97.6872,"RA_OF_ASC_NODE":164.137,"ARG_OF_PERICENTER":78.4669,"MEAN_ANOMALY":281.6745,"EPHEMERIS_TYPE":0,"CLASSIFICATION_TYPE":"U","NORAD_CAT_ID":60534,"ELEMENT_SET_NO":999,"REV_AT_EPOCH":8793,"BSTAR":0.00019913,"MEAN_MOTION_DOT":2.179e-5,"MEAN_MOTION_DDOT":0}]
